{"type": "FeatureCollection", "features": [ {"type": "Feature", "properties": {"norad_id": 66611, "name": "STARLINK-35583", "group": "last-30-days", "lat": -26.067877585302252, "lon": -137.189952136735, "alt_km": 329.1924294490018, "timestamp": "2025-12-02T08:59:31.504938+00:00", "meta": {"OBJECT_NAME": "STARLINK-35583", "OBJECT_ID": "2025-270Z", "EPOCH": "2025-12-01T18:00:02.998944", "MEAN_MOTION": 15.83406212, "ECCENTRICITY": 0.0001738, "INCLINATION": 42.9989, "RA_OF_ASC_NODE": 258.3095, "ARG_OF_PERICENTER": 261.6193, "MEAN_ANOMALY": 96.0499, "EPHEMERIS_TYPE": 0, "CLASSIFICATION_TYPE": "U", "NORAD_CAT_ID": 66611, "ELEMENT_SET_NO": 999, "REV_AT_EPOCH": 274, "BSTAR": -0.008965, "MEAN_MOTION_DOT": -0.01741105, "MEAN_MOTION_DDOT": 0}, "tle": {"line1": "1 66611U 25270Z   25335.75003471 -.01741105  00000+0 -89650-2 0  9991", "line2": "2 66611  42.9989 258.3095 0001738 261.6193  96.0499 15.83406212  2744"}}, "geometry": {"type": "Point", "coordinates": [-137.189952136735, -26.067877585302252]}}, {"type": "Feature", "properties": {"norad_id": 66612, "name": "STARLINK-36039", "group": "last-30-days", "lat": -24.797601928585653, "lon": -135.25167464152406, "alt_km": 329.16087746761605, "timestamp": "2025-12-02T08:59:31.504948+00:00", "meta": {"OBJECT_NAME": "STARLINK-36039", "OBJECT_ID": "2025-270AA", "EPOCH": "2025-12-01T18:00:02.998944", "MEAN_MOTION": 15.83404731, "ECCENTRICITY": 0.0001667, "INCLINATION": 42.9986, "RA_OF_ASC_NODE": 258.3039, "ARG_OF_PERICENTER": 265.3168, "MEAN_ANOMALY": 94.5591, "EPHEMERIS_TYPE": 0, "CLASSIFICATION_TYPE": "U", "NORAD_CAT_ID": 66612, "ELEMENT_SET_NO": 999, "REV_AT_EPOCH": 263, "BSTAR": -0.0090796, "MEAN_MOTION_DOT": -0.01798186, "MEAN_MOTION_DDOT": 0}, "tle": {"line1": "1 66612U 25270AA  25335.75003471 -.01798186  00000+0 -90796-2 0  9996", "line2": "2 66612  42.9986 258.3039 0001667 265.3168  94.5591 15.83404731  2632"}}, "geometry": {"type": "Point", "coordinates": [-135.25167464152406, -24.797601928585653]}}, {"type": "Feature", "properties": {"norad_id": 66613, "name": "STARLINK-36037", "group": "last-30-days", "lat": -23.57285491206906, "lon": -133.45358100634868, "alt_km": 329.2718355395409, "timestamp": "2025-12-02T08:59:31.504958+00:00", "meta": {"OBJECT_NAME": "STARLINK-36037", "OBJECT_ID": "2025-270AB", "EPOCH": "2025-12-01T18:00:02.998944", "MEAN_MOTION": 15.8340893, "ECCENTRICITY": 0.0001756, "INCLINATION": 42.9987, "RA_OF_ASC_NODE": 258.2988, "ARG_OF_PERICENTER": 259.3613, "MEAN_ANOMALY": 102.5682, "EPHEMERIS_TYPE": 0, "CLASSIFICATION_TYPE": "U", "NORAD_CAT_ID": 66613, "ELEMENT_SET_NO": 999, "REV_AT_EPOCH": 263, "BSTAR": -0.0091242, "MEAN_MOTION_DOT": -0.01806358, "MEAN_MOTION_DDOT": 0}, "tle": {"line1": "1 66613U 25270AB  25335.75003471 -.01806358  00000+0 -91242-2 0  9995", "line2": "2 66613  42.9987 258.2988 0001756 259.3613 102.5682 15.83408930  2639"}}, "geometry": {"type": "Point", "coordinates": [-133.45358100634868, -23.57285491206906]}}, {"type": "Feature", "properties": {"norad_id": 66614, "name": "STARLINK-36040", "group": "last-30-days", "lat": -21.190704120263124, "lon": -130.1283115169785, "alt_km": 329.1347948727753, "timestamp": "2025-12-02T08:59:31.504968+00:00", "meta": {"OBJECT_NAME": "STARLINK-36040", "OBJECT_ID": "2025-270AC", "EPOCH": "2025-12-01T18:00:02.998944", "MEAN_MOTION": 15.83445621, "ECCENTRICITY": 0.000169, "INCLINATION": 42.9987, "RA_OF_ASC_NODE": 258.289, "ARG_OF_PERICENTER": 260.3971, "MEAN_ANOMALY": 105.3783, "EPHEMERIS_TYPE": 0, "CLASSIFICATION_TYPE": "U", "NORAD_CAT_ID": 66614, "ELEMENT_SET_NO": 999, "REV_AT_EPOCH": 247, "BSTAR": -0.0092068, "MEAN_MOTION_DOT": -0.01823456, "MEAN_MOTION_DDOT": 0}, "tle": {"line1": "1 66614U 25270AC  25335.75003471 -.01823456  00000+0 -92068-2 0  9991", "line2": "2 66614  42.9987 258.2890 0001690 260.3971 105.3783 15.83445621  2471"}}, "geometry": {"type": "Point", "coordinates": [-130.1283115169785, -21.190704120263124]}}, {"type": "Feature", "properties": {"norad_id": 66615, "name": "STARLINK-35988", "group": "last-30-days", "lat": -22.324068296179053, "lon": -131.68423810015238, "alt_km": 329.2517434287902, "timestamp": "2025-12-02T08:59:31.504983+00:00", "meta": {"OBJECT_NAME": "STARLINK-35988", "OBJECT_ID": "2025-270AD", "EPOCH": "2025-12-01T18:00:02.998944", "MEAN_MOTION": 15.83415826, "ECCENTRICITY": 0.0001733, "INCLINATION": 42.9987, "RA_OF_ASC_NODE": 258.2936, "ARG_OF_PERICENTER": 259.5387, "MEAN_ANOMALY": 104.4515, "EPHEMERIS_TYPE": 0, "CLASSIFICATION_TYPE": "U", "NORAD_CAT_ID": 66615, "ELEMENT_SET_NO": 999, "REV_AT_EPOCH": 247, "BSTAR": -0.0091831, "MEAN_MOTION_DOT": -0.01817094, "MEAN_MOTION_DDOT": 0}, "tle": {"line1": "1 66615U 25270AD  25335.75003471 -.01817094  00000+0 -91831-2 0  9990", "line2": "2 66615  42.9987 258.2936 0001733 259.5387 104.4515 15.83415826  2479"}}, "geometry": {"type": "Point", "coordinates": [-131.68423810015238, -22.324068296179053]}}, {"type": "Feature", "properties": {"norad_id": 66616, "name": "STARLINK-35391", "group": "last-30-days", "lat": -19.934588923759005, "lon": -128.4529698196145, "alt_km": 328.99945603944707, "timestamp": "2025-12-02T08:59:31.504994+00:00", "meta": {"OBJECT_NAME": "STARLINK-35391", "OBJECT_ID": "2025-270AE", "EPOCH": "2025-12-01T18:00:02.998944", "MEAN_MOTION": 15.83455157, "ECCENTRICITY": 0.0001713, "INCLINATION": 42.9988, "RA_OF_ASC_NODE": 258.2841, "ARG_OF_PERICENTER": 262.9224, "MEAN_ANOMALY": 104.8599, "EPHEMERIS_TYPE": 0, "CLASSIFICATION_TYPE": "U", "NORAD_CAT_ID": 66616, "ELEMENT_SET_NO": 999, "REV_AT_EPOCH": 274, "BSTAR": -0.0092499, "MEAN_MOTION_DOT": -0.018317, "MEAN_MOTION_DDOT": 0}, "tle": {"line1": "1 66616U 25270AE  25335.75003471 -.01831700  00000+0 -92499-2 0  9992", "line2": "2 66616  42.9988 258.2841 0001713 262.9224 104.8599 15.83455157  2749"}}, "geometry": {"type": "Point", "coordinates": [-128.4529698196145, -19.934588923759005]}}, {"type": "Feature", "properties": {"norad_id": 66645, "name": "SHENZHOU-22", "group": "last-30-days", "lat": -23.987697588893717, "lon": -70.14084489225215, "alt_km": 394.7526133695119, "timestamp": "2025-12-02T08:59:31.505006+00:00", "meta": {"OBJECT_NAME": "SHENZHOU-22", "OBJECT_ID": "2025-272A", "EPOCH": "2025-12-01T15:08:36.996864", "MEAN_MOTION": 15.5848082, "ECCENTRICITY": 0.00103969, "INCLINATION": 41.4671, "RA_OF_ASC_NODE": 84.1132, "ARG_OF_PERICENTER": 308.0304, "MEAN_ANOMALY": 51.9595, "EPHEMERIS_TYPE": 0, "CLASSIFICATION_TYPE": "U", "NORAD_CAT_ID": 66645, "ELEMENT_SET_NO": 999, "REV_AT_EPOCH": 26230, "BSTAR": 0.00025188161, "MEAN_MOTION_DOT": 0.00019534, "MEAN_MOTION_DDOT": 0}, "tle": {"line1": "1 66645U 25272A   25335.63098376  .00019534  00000+0  25188-3 0  9993", "line2": "2 66645  41.4671  84.1132 0010396 308.0304  51.9595 15.58480820262306"}}, "geometry": {"type": "Point", "coordinates": [-70.14084489225215, -23.987697588893717]}}, {"type": "Feature", "properties": {"norad_id": 66646, "name": "CZ-2F R/B", "group": "last-30-days", "lat": -29.129287892441532, "lon": 37.363633124078326, "alt_km": 303.86277834849625, "timestamp": "2025-12-02T08:59:31.505016+00:00", "meta": {"OBJECT_NAME": "CZ-2F R/B", "OBJECT_ID": "2025-272B", "EPOCH": "2025-11-26T11:17:54.506400", "MEAN_MOTION": 16.01945612, "ECCENTRICITY": 0.01210796, "INCLINATION": 41.4431, "RA_OF_ASC_NODE": 114.9009, "ARG_OF_PERICENTER": 133.7676, "MEAN_ANOMALY": 227.3272, "EPHEMERIS_TYPE": 0, "CLASSIFICATION_TYPE": "U", "NORAD_CAT_ID": 66646, "ELEMENT_SET_NO": 999, "REV_AT_EPOCH": 21, "BSTAR": 0.00029319366, "MEAN_MOTION_DOT": 0.00449059, "MEAN_MOTION_DDOT": 7.567612e-06}, "tle": {"line1": "1 66646U 25272B   25330.47076975  .00449059  75676-5  29319-3 0  9998", "line2": "2 66646  41.4431 114.9009 0121079 133.7676 227.3272 16.01945612   217"}}, "geometry": {"type": "Point", "coordinates": [37.363633124078326, -29.129287892441532]}}, {"type": "Feature", "properties": {"norad_id": 66647, "name": "COSMOS 2597 (RODNIK-S 22)", "group": "last-30-days", "lat": -48.439693673321486, "lon": 121.43275501174863, "alt_km": 1504.4589886694848, "timestamp": "2025-12-02T08:59:31.505026+00:00", "meta": {"OBJECT_NAME": "COSMOS 2597 (RODNIK-S 22)", "OBJECT_ID": "2025-273A", "EPOCH": "2025-12-02T03:53:44.102400", "MEAN_MOTION": 12.41951049, "ECCENTRICITY": 0.0008172, "INCLINATION": 82.498, "RA_OF_ASC_NODE": 293.0182, "ARG_OF_PERICENTER": 313.9141, "MEAN_ANOMALY": 46.1263, "EPHEMERIS_TYPE": 0, "CLASSIFICATION_TYPE": "U", "NORAD_CAT_ID": 66647, "ELEMENT_SET_NO": 999, "REV_AT_EPOCH": 82, "BSTAR": -4.6604e-05, "MEAN_MOTION_DOT": 3e-08, "MEAN_MOTION_DDOT": 0}, "tle": {"line1": "1 66647U 25273A   25336.16231600  .00000003  00000+0 -46604-4 0  9993", "line2": "2 66647  82.4980 293.0182 0008172 313.9141  46.1263 12.41951049   825"}}, "geometry": {"type": "Point", "coordinates": [121.43275501174863, -48.439693673321486]}}, {"type": "Feature", "properties": {"norad_id": 66648, "name": "COSMOS 2598 (RODNIK-S 23)", "group": "last-30-days", "lat": -55.57362083572689, "lon": 123.96935267781475, "alt_km": 1501.3756946478807, "timestamp": "2025-12-02T08:59:31.505039+00:00", "meta": {"OBJECT_NAME": "COSMOS 2598 (RODNIK-S 23)", "OBJECT_ID": "2025-273B", "EPOCH": "2025-12-02T03:51:27.122112", "MEAN_MOTION": 12.42253014, "ECCENTRICITY": 0.0008253, "INCLINATION": 82.5022, "RA_OF_ASC_NODE": 293.0251, "ARG_OF_PERICENTER": 302.5587, "MEAN_ANOMALY": 57.4695, "EPHEMERIS_TYPE": 0, "CLASSIFICATION_TYPE": "U", "NORAD_CAT_ID": 66648, "ELEMENT_SET_NO": 999, "REV_AT_EPOCH": 82, "BSTAR": -0.00019943, "MEAN_MOTION_DOT": -1.8e-07, "MEAN_MOTION_DDOT": 0}, "tle": {"line1": "1 66648U 25273B   25336.16073058 -.00000018  00000+0 -19943-3 0  9997", "line2": "2 66648  82.5022 293.0251 0008253 302.5587  57.4695 12.42253014   821"}}, "geometry": {"type": "Point", "coordinates": [123.96935267781475, -55.57362083572689]}}]}